[{"OBJECT_NAME":"EDISON-1","OBJECT_ID":"2025-009B","EPOCH":"2026-03-09T19:16:13.822464","MEAN_MOTION":15.29042904,"ECCENTRICITY":0.00043285,"INCLINATION":97.4042,"RA_OF_ASC_NODE":151.6286,"ARG_OF_PERICENTER":306.4185,"MEAN_ANOMALY":53.6655,"EPHEMERIS_TYPE":0,"CLASSIFICATION_TYPE":"U","NORAD_CAT_ID":62610,"ELEMENT_SET_NO":999,"REV_AT_EPOCH":6375,"BSTAR":0.00052814963,"MEAN_MOTION_DOT":0.00014835,"MEAN_MOTION_DDOT":0},{"OBJECT_NAME":"STARLINK-35445","OBJECT_ID":"2025-223AC","EPOCH":"2026-03-09T21:15:27.598176","MEAN_MOTION":15.30207832,"ECCENTRICITY":9.957e-5,"INCLINATION":53.1593,"RA_OF_ASC_NODE":293.4007,"ARG_OF_PERICENTER":161.3789,"MEAN_ANOMALY":198.7248,"EPHEMERIS_TYPE":0,"CLASSIFICATION_TYPE":"U","NORAD_CAT_ID":65880,"ELEMENT_SET_NO":999,"REV_AT_EPOCH":2423,"BSTAR":0.00087466974,"MEAN_MOTION_DOT":0.00025642,"MEAN_MOTION_DDOT":0}]
